STARLINK-5590
1 55371U 23013AS  26090.32689695 -.00043773  00000+0 -25565-2 0  9995
2 55371  43.0005 194.9485 0001415 257.7670 102.3017 15.11308621175746
STARLINK-5578
1 55374U 23013AV  26090.60042592 -.00041172  00000+0 -24041-2 0  9997
2 55374  43.0016 193.5617 0000459 208.3421 151.7399 15.11293056174864
